{"type": "FeatureCollection", "features": [ {"type": "Feature", "properties": {"norad_id": 41335, "name": "SENTINEL-3A", "group": "resource", "lat": 7.3571188174910285, "lon": 50.215419699334085, "alt_km": 804.4909150517396, "timestamp": "2025-12-12T07:43:20.160913+00:00", "meta": {"OBJECT_NAME": "SENTINEL-3A", "OBJECT_ID": "2016-011A", "EPOCH": "2025-12-11T23:16:18.706944", "MEAN_MOTION": 14.26730256, "ECCENTRICITY": 9.529e-05, "INCLINATION": 98.6316, "RA_OF_ASC_NODE": 50.992, "ARG_OF_PERICENTER": 89.5434, "MEAN_ANOMALY": 270.5855, "EPHEMERIS_TYPE": 0, "CLASSIFICATION_TYPE": "U", "NORAD_CAT_ID": 41335, "ELEMENT_SET_NO": 999, "REV_AT_EPOCH": 51136, "BSTAR": 0.00011350994, "MEAN_MOTION_DOT": 2.31e-06, "MEAN_MOTION_DDOT": 0}, "tle": {"line1": "1 41335U 16011A   25345.96966096  .00000231  00000+0  11351-3 0  9994", "line2": "2 41335  98.6316  50.9920 0000952  89.5434 270.5855 14.26730256511369"}}, "geometry": {"type": "Point", "coordinates": [50.215419699334085, 7.3571188174910285]}}, {"type": "Feature", "properties": {"norad_id": 41556, "name": "ZIYUAN 3-2 (ZY 3-2)", "group": "resource", "lat": -22.92612752502969, "lon": 63.64831914851225, "alt_km": 506.2910580885491, "timestamp": "2025-12-12T07:43:20.160924+00:00", "meta": {"OBJECT_NAME": "ZIYUAN 3-2 (ZY 3-2)", "OBJECT_ID": "2016-033A", "EPOCH": "2025-12-11T23:55:54.020928", "MEAN_MOTION": 15.21485317, "ECCENTRICITY": 0.0012424, "INCLINATION": 97.4041, "RA_OF_ASC_NODE": 60.1761, "ARG_OF_PERICENTER": 251.8772, "MEAN_ANOMALY": 108.1111, "EPHEMERIS_TYPE": 0, "CLASSIFICATION_TYPE": "U", "NORAD_CAT_ID": 41556, "ELEMENT_SET_NO": 999, "REV_AT_EPOCH": 52952, "BSTAR": 0.00046829796, "MEAN_MOTION_DOT": 0.00010491, "MEAN_MOTION_DDOT": 0}, "tle": {"line1": "1 41556U 16033A   25345.99715302  .00010491  00000+0  46830-3 0  9997", "line2": "2 41556  97.4041  60.1761 0012424 251.8772 108.1111 15.21485317529527"}}, "geometry": {"type": "Point", "coordinates": [63.64831914851225, -22.92612752502969]}}, {"type": "Feature", "properties": {"norad_id": 41599, "name": "CARTOSAT-2C", "group": "resource", "lat": -74.18051572096888, "lon": 71.1902083275216, "alt_km": 521.3004366205896, "timestamp": "2025-12-12T07:43:20.160934+00:00", "meta": {"OBJECT_NAME": "CARTOSAT-2C", "OBJECT_ID": "2016-040A", "EPOCH": "2025-12-12T00:09:11.382336", "MEAN_MOTION": 15.19285537, "ECCENTRICITY": 0.00109671, "INCLINATION": 97.4768, "RA_OF_ASC_NODE": 43.2638, "ARG_OF_PERICENTER": 67.5537, "MEAN_ANOMALY": 292.6858, "EPHEMERIS_TYPE": 0, "CLASSIFICATION_TYPE": "U", "NORAD_CAT_ID": 41599, "ELEMENT_SET_NO": 999, "REV_AT_EPOCH": 52529, "BSTAR": 0.00040440515, "MEAN_MOTION_DOT": 8.48e-05, "MEAN_MOTION_DDOT": 0}, "tle": {"line1": "1 41599U 16040A   25346.00638174  .00008480  00000+0  40441-3 0  9993", "line2": "2 41599  97.4768  43.2638 0010967  67.5537 292.6858 15.19285537525292"}}, "geometry": {"type": "Point", "coordinates": [71.1902083275216, -74.18051572096888]}}, {"type": "Feature", "properties": {"norad_id": 41601, "name": "SKYSAT-C1", "group": "resource", "lat": -40.44208860512918, "lon": 29.355478963990077, "alt_km": 473.78555605721067, "timestamp": "2025-12-12T07:43:20.160945+00:00", "meta": {"OBJECT_NAME": "SKYSAT-C1", "OBJECT_ID": "2016-040C", "EPOCH": "2025-12-11T08:23:40.530624", "MEAN_MOTION": 15.32550324, "ECCENTRICITY": 0.00025282, "INCLINATION": 96.983, "RA_OF_ASC_NODE": 22.4415, "ARG_OF_PERICENTER": 19.7612, "MEAN_ANOMALY": 340.3729, "EPHEMERIS_TYPE": 0, "CLASSIFICATION_TYPE": "U", "NORAD_CAT_ID": 41601, "ELEMENT_SET_NO": 999, "REV_AT_EPOCH": 52906, "BSTAR": 0.0005196648, "MEAN_MOTION_DOT": 0.00016279, "MEAN_MOTION_DDOT": 0}, "tle": {"line1": "1 41601U 16040C   25345.34977466  .00016279  00000+0  51966-3 0  9992", "line2": "2 41601  96.9830  22.4415 0002528  19.7612 340.3729 15.32550324529060"}}, "geometry": {"type": "Point", "coordinates": [29.355478963990077, -40.44208860512918]}}, {"type": "Feature", "properties": {"norad_id": 41603, "name": "LAPAN-A3", "group": "resource", "lat": 73.6679283138728, "lon": -170.7668120102337, "alt_km": 468.38180846313844, "timestamp": "2025-12-12T07:43:20.160956+00:00", "meta": {"OBJECT_NAME": "LAPAN-A3", "OBJECT_ID": "2016-040E", "EPOCH": "2025-12-12T00:59:40.950816", "MEAN_MOTION": 15.31541455, "ECCENTRICITY": 0.0009744, "INCLINATION": 97.1433, "RA_OF_ASC_NODE": 343.6231, "ARG_OF_PERICENTER": 336.6524, "MEAN_ANOMALY": 23.4275, "EPHEMERIS_TYPE": 0, "CLASSIFICATION_TYPE": "U", "NORAD_CAT_ID": 41603, "ELEMENT_SET_NO": 999, "REV_AT_EPOCH": 52615, "BSTAR": 0.00019617597, "MEAN_MOTION_DOT": 5.909e-05, "MEAN_MOTION_DDOT": 0}, "tle": {"line1": "1 41603U 16040E   25346.04144619  .00005909  00000+0  19618-3 0  9994", "line2": "2 41603  97.1433 343.6231 0009744 336.6524  23.4275 15.31541455526154"}}, "geometry": {"type": "Point", "coordinates": [-170.7668120102337, 73.6679283138728]}}, {"type": "Feature", "properties": {"norad_id": 41604, "name": "BIROS", "group": "resource", "lat": -20.322218526757855, "lon": -164.89699926093286, "alt_km": 307.48543424551735, "timestamp": "2025-12-12T07:43:20.160966+00:00", "meta": {"OBJECT_NAME": "BIROS", "OBJECT_ID": "2016-040F", "EPOCH": "2025-12-12T00:50:17.402496", "MEAN_MOTION": 15.8941453, "ECCENTRICITY": 0.00032982, "INCLINATION": 97.0701, "RA_OF_ASC_NODE": 17.4393, "ARG_OF_PERICENTER": 153.8275, "MEAN_ANOMALY": 206.3166, "EPHEMERIS_TYPE": 0, "CLASSIFICATION_TYPE": "U", "NORAD_CAT_ID": 41604, "ELEMENT_SET_NO": 999, "REV_AT_EPOCH": 52861, "BSTAR": 0.0006781359, "MEAN_MOTION_DOT": 0.00195229, "MEAN_MOTION_DDOT": 1.5627027e-05}, "tle": {"line1": "1 41604U 16040F   25346.03492364  .00195229  15627-4  67814-3 0  9999", "line2": "2 41604  97.0701  17.4393 0003298 153.8275 206.3166 15.89414530528617"}}, "geometry": {"type": "Point", "coordinates": [-164.89699926093286, -20.322218526757855]}}, {"type": "Feature", "properties": {"norad_id": 41727, "name": "GAOFEN-3", "group": "resource", "lat": 15.78293854640217, "lon": -10.480873012368892, "alt_km": 751.1643682577869, "timestamp": "2025-12-12T07:43:20.160976+00:00", "meta": {"OBJECT_NAME": "GAOFEN-3", "OBJECT_ID": "2016-049A", "EPOCH": "2025-12-12T00:59:17.534688", "MEAN_MOTION": 14.42213698, "ECCENTRICITY": 0.00014456, "INCLINATION": 98.4042, "RA_OF_ASC_NODE": 351.6377, "ARG_OF_PERICENTER": 62.5643, "MEAN_ANOMALY": 297.5694, "EPHEMERIS_TYPE": 0, "CLASSIFICATION_TYPE": "U", "NORAD_CAT_ID": 41727, "ELEMENT_SET_NO": 999, "REV_AT_EPOCH": 49167, "BSTAR": 9.5140223e-05, "MEAN_MOTION_DOT": 2.7e-06, "MEAN_MOTION_DDOT": 0}, "tle": {"line1": "1 41727U 16049A   25346.04117517  .00000270  00000+0  95140-4 0  9998", "line2": "2 41727  98.4042 351.6377 0001445  62.5643 297.5694 14.42213698491671"}}, "geometry": {"type": "Point", "coordinates": [-10.480873012368892, 15.78293854640217]}}, {"type": "Feature", "properties": {"norad_id": 41771, "name": "SKYSAT-C4", "group": "resource", "lat": -59.37548724119997, "lon": 179.6587557859897, "alt_km": 447.015410044055, "timestamp": "2025-12-12T07:43:20.160987+00:00", "meta": {"OBJECT_NAME": "SKYSAT-C4", "OBJECT_ID": "2016-058B", "EPOCH": "2025-12-12T00:27:20.747232", "MEAN_MOTION": 15.42215688, "ECCENTRICITY": 0.00014662, "INCLINATION": 96.9379, "RA_OF_ASC_NODE": 11.2413, "ARG_OF_PERICENTER": 133.9929, "MEAN_ANOMALY": 226.1441, "EPHEMERIS_TYPE": 0, "CLASSIFICATION_TYPE": "U", "NORAD_CAT_ID": 41771, "ELEMENT_SET_NO": 999, "REV_AT_EPOCH": 51656, "BSTAR": 0.00046676534, "MEAN_MOTION_DOT": 0.00019985, "MEAN_MOTION_DDOT": 0}, "tle": {"line1": "1 41771U 16058B   25346.01899013  .00019985  00000+0  46677-3 0  9995", "line2": "2 41771  96.9379  11.2413 0001466 133.9929 226.1441 15.42215688516565"}}, "geometry": {"type": "Point", "coordinates": [179.6587557859897, -59.37548724119997]}}, {"type": "Feature", "properties": {"norad_id": 41772, "name": "SKYSAT-C5", "group": "resource", "lat": 15.75793011522021, "lon": -147.89901378952035, "alt_km": 461.9846573877712, "timestamp": "2025-12-12T07:43:20.160997+00:00", "meta": {"OBJECT_NAME": "SKYSAT-C5", "OBJECT_ID": "2016-058C", "EPOCH": "2025-12-11T13:47:56.890464", "MEAN_MOTION": 15.34906129, "ECCENTRICITY": 4.671e-05, "INCLINATION": 97.0751, "RA_OF_ASC_NODE": 29.3759, "ARG_OF_PERICENTER": 257.3192, "MEAN_ANOMALY": 102.8, "EPHEMERIS_TYPE": 0, "CLASSIFICATION_TYPE": "U", "NORAD_CAT_ID": 41772, "ELEMENT_SET_NO": 999, "REV_AT_EPOCH": 51498, "BSTAR": 0.00046260661, "MEAN_MOTION_DOT": 0.00015598, "MEAN_MOTION_DDOT": 0}, "tle": {"line1": "1 41772U 16058C   25345.57496401  .00015598  00000+0  46261-3 0  9995", "line2": "2 41772  97.0751  29.3759 0000467 257.3192 102.8000 15.34906129514981"}}, "geometry": {"type": "Point", "coordinates": [-147.89901378952035, 15.75793011522021]}}, {"type": "Feature", "properties": {"norad_id": 41773, "name": "SKYSAT-C2", "group": "resource", "lat": 7.58062662660703, "lon": -168.19186823046087, "alt_km": 458.4762762408873, "timestamp": "2025-12-12T07:43:20.161007+00:00", "meta": {"OBJECT_NAME": "SKYSAT-C2", "OBJECT_ID": "2016-058D", "EPOCH": "2025-12-12T00:43:35.831712", "MEAN_MOTION": 15.37243964, "ECCENTRICITY": 0.00043205, "INCLINATION": 97.0369, "RA_OF_ASC_NODE": 10.587, "ARG_OF_PERICENTER": 36.2464, "MEAN_ANOMALY": 323.9073, "EPHEMERIS_TYPE": 0, "CLASSIFICATION_TYPE": "U", "NORAD_CAT_ID": 41773, "ELEMENT_SET_NO": 999, "REV_AT_EPOCH": 51625, "BSTAR": 0.00047659337, "MEAN_MOTION_DOT": 0.00017332, "MEAN_MOTION_DDOT": 0}, "tle": {"line1": "1 41773U 16058D   25346.03027583  .00017332  00000+0  47659-3 0  9999", "line2": "2 41773  97.0369  10.5870 0004320  36.2464 323.9073 15.37243964516253"}}, "geometry": {"type": "Point", "coordinates": [-168.19186823046087, 7.58062662660703]}}]}